{
    "links": {
        "self": "http://www.neowsapp.com/rest/v1/neo/3837556?api_key=iIulBulltgU6a56xZRHN4H3l9WmuAYTsLGpBGhQ2"
    },
    "id": "3837556",
    "neo_reference_id": "3837556",
    "name": "(2019 AM)",
    "designation": "2019 AM",
    "nasa_jpl_url": "http://ssd.jpl.nasa.gov/sbdb.cgi?sstr=3837556",
    "absolute_magnitude_h": 23.0,
    "estimated_diameter": {
        "kilometers": {
            "estimated_diameter_min": 0.0667659413,
            "estimated_diameter_max": 0.1492931834
        },
        "meters": {
            "estimated_diameter_min": 66.7659413495,
            "estimated_diameter_max": 149.2931834393
        },
        "miles": {
            "estimated_diameter_min": 0.0414864197,
            "estimated_diameter_max": 0.0927664547
        },
        "feet": {
            "estimated_diameter_min": 219.0483710172,
            "estimated_diameter_max": 489.807047955
        }
    },
    "is_potentially_hazardous_asteroid": false,
    "close_approach_data": [
        {
            "close_approach_date": "2018-12-31",
            "close_approach_date_full": "2018-Dec-31 03:06",
            "epoch_date_close_approach": 1546225560000,
            "relative_velocity": {
                "kilometers_per_second": "11.3452751542",
                "kilometers_per_hour": "40842.9905551672",
                "miles_per_hour": "25378.2459924593"
            },
            "miss_distance": {
                "astronomical": "0.1192347405",
                "lunar": "46.3823140545",
                "kilometers": "17837263.208802735",
                "miles": "11083561.406378343"
            },
            "orbiting_body": "Earth"
        }
    ],
    "orbital_data": {
        "orbit_id": "5",
        "orbit_determination_date": "2019-07-27 14:01:34",
        "first_observation_date": "2019-01-02",
        "last_observation_date": "2019-02-02",
        "data_arc_in_days": 31,
        "observations_used": 24,
        "orbit_uncertainty": "8",
        "minimum_orbit_intersection": ".0233114",
        "jupiter_tisserand_invariant": "3.751",
        "epoch_osculation": "2458489.5",
        "eccentricity": ".4740313948166812",
        "semi_major_axis": "1.915034998737132",
        "inclination": "14.58971656423139",
        "ascending_node_longitude": "85.00318363881436",
        "orbital_period": "967.9735716539067",
        "perihelion_distance": "1.007248287163008",
        "perihelion_argument": "357.6932666181311",
        "aphelion_distance": "2.822821710311256",
        "perihelion_time": "2458474.859865182987",
        "mean_anomaly": "5.444826892452698",
        "mean_motion": ".3719109803637448",
        "equinox": "J2000",
        "orbit_class": {
            "orbit_class_type": "APO",
            "orbit_class_description": "Near-Earth asteroid orbits which cross the Earth’s orbit similar to that of 1862 Apollo",
            "orbit_class_range": "a (semi-major axis) > 1.0 AU; q (perihelion) < 1.017 AU"
        }
    },
    "is_sentry_object": false
}